ONEWEB-0574             
1 56063U 23043T   23342.66377441  .00000023  00000+0  23595-4 0  9996
2 56063  87.9263  67.4316 0001887 106.0024 254.1318 13.21824675 36531
ONEWEB-0575             
1 56064U 23043U   23342.58791232  .00000044  00000+0  66373-4 0  9990
2 56064  87.9591  52.1984 0001494  90.4996 269.6313 13.29944524 38606
ONEWEB-0576             
1 56065U 23043V   23343.46304908 -.00077505  00000+0 -17055+0 0  9995
2 56065  87.9507  52.0283 0000520  45.4690 314.6490 13.28812177 38711
ONEWEB-0577             
1 56066U 23043W   23342.28375057 -.00000005  00000+0 -40008-4 0  9998
2 56066  87.9604  52.2551 0001078  58.1802 301.9441 13.29903216 37670
ONEWEB-0578             
1 56067U 23043X   23342.27267503  .00000063  00000+0  12129-3 0  9998
2 56067  87.9283  67.5069 0001922 102.9394 257.1954 13.21828309 36445
ONEWEB-0579             
1 56068U 23043Y   23342.26320826  .00000100  00000+0  21004-3 0  9990
2 56068  87.9269  67.5085 0001284 109.7724 250.3548 13.21828562 36457
ONEWEB-0581             
1 56069U 23043Z   23342.59835764 -.00000021  00000+0 -73170-4 0  9995
2 56069  87.9482  52.2298 0000447 161.6855 198.4300 13.29229021 38592
ONEWEB-0609             
1 56070U 23043AA  23343.35765685  .00000125  00000+0  29861-3 0  9996
2 56070  87.8993  82.5331 0001721 109.7691 250.3625 13.15545502 36272
